OBJECT_NAME,OBJECT_ID,EPOCH,MEAN_MOTION,ECCENTRICITY,INCLINATION,RA_OF_ASC_NODE,ARG_OF_PERICENTER,MEAN_ANOMALY,EPHEMERIS_TYPE,CLASSIFICATION_TYPE,NORAD_CAT_ID,ELEMENT_SET_NO,REV_AT_EPOCH,BSTAR,MEAN_MOTION_DOT,MEAN_MOTION_DDOT
ONEWEB-0311,2021-075Y,2026-07-02T17:43:36.708384,13.17649412,.0002026,87.9135,2.7686,77.6237,282.5121,0,U,49097,999,23567,-.55909E-3,-.204E-5,0
ONEWEB-0312,2021-075Z,2026-07-02T18:05:29.391360,13.17648867,.0002185,87.9134,2.7759,87.3613,272.7769,0,U,49098,999,23565,.83249E-4,.45E-6,0
ONEWEB-0313,2021-075AA,2026-07-02T18:12:35.402112,13.17649364,.0001926,87.9131,2.7805,86.7270,273.4081,0,U,49099,999,23564,-.29479E-4,.1E-7,0
ONEWEB-0314,2021-075AB,2026-07-02T17:24:11.703744,13.17650446,.0002211,87.9145,2.7614,85.8475,274.2909,0,U,49100,999,23561,.62917E-4,.37E-6,0
ONEWEB-0315,2021-075AC,2026-07-02T20:05:27.759840,13.12441159,.0001821,87.8956,347.5323,81.6606,278.4729,0,U,49101,999,23722,.89129E-3,.333E-5,0
ONEWEB-0316,2021-075AD,2026-07-02T17:07:26.095872,13.18684796,.0001841,87.9179,332.3673,97.1913,262.9428,0,U,49102,999,23925,.5446E-3,.228E-5,0
ONEWEB-0317,2021-075AE,2026-07-02T20:10:20.401824,13.12441767,.0002138,87.8957,347.5556,113.3531,246.7823,0,U,49103,999,23724,.91725E-3,.343E-5,0
ONEWEB-0318,2021-075AF,2026-07-02T09:45:31.885056,13.18686301,.0001886,87.9181,332.4303,90.0602,270.0746,0,U,49104,999,23917,.36114E-4,.27E-6,0
ONEWEB-0319,2021-075AG,2026-07-02T17:46:03.030240,13.17650221,.0001809,87.9136,2.7732,73.6177,286.5154,0,U,49105,999,23565,-.84525E-4,-.2E-6,0
ONEWEB-0323,2021-075AH,2026-07-02T19:43:30.626400,13.12442700,.0001977,87.8959,347.5404,77.3911,282.7439,0,U,49106,999,23660,.86943E-3,.326E-5,0
ONEWEB-0329,2021-075AJ,2026-07-02T17:58:12.334368,13.17650107,.0001974,87.9138,2.7721,87.8787,272.2570,0,U,49107,999,23563,-.63306E-4,-.12E-6,0
ONEWEB-0330,2021-075AK,2026-07-02T18:09:41.711328,13.19184572,.0002139,87.9135,2.7842,91.2513,268.8865,0,U,49108,999,23567,.25312E-3,.113E-5,0
ONEWEB-0292,2021-083A,2026-07-02T15:06:37.574784,13.13469273,.0001863,87.8968,317.1634,94.5244,265.6098,0,U,49186,999,23295,-.89884E-3,-.315E-5,0
ONEWEB-0303,2021-083B,2026-07-02T16:57:42.602112,13.18687615,.0001817,87.9181,332.3690,90.6930,269.4410,0,U,49187,999,23202,-.28065E-3,-.98E-6,0
ONEWEB-0306,2021-083C,2026-07-02T20:21:39.271680,13.18687705,.0001926,87.9187,332.3293,102.2624,257.8724,0,U,49188,999,23208,-.1261E-3,-.37E-6,0
ONEWEB-0307,2021-083D,2026-07-02T20:27:10.912032,13.13470894,.0001911,87.8970,317.1171,95.0250,265.1098,0,U,49189,999,23298,-.6416E-3,-.222E-5,0
ONEWEB-0320,2021-083E,2026-07-02T15:23:01.197312,13.18687140,.0001863,87.9174,332.3870,96.9150,263.2194,0,U,49190,999,23201,.70749E-4,.41E-6,0
ONEWEB-0321,2021-083F,2026-07-02T15:43:48.314784,13.20773322,.0002103,87.9193,271.3525,107.7395,252.3968,0,U,49191,999,23887,.12023E-3,.62E-6,0
ONEWEB-0322,2021-083G,2026-07-02T20:21:06.106176,13.13469292,.0001736,87.8967,317.1176,112.6101,247.5212,0,U,49192,999,23297,-.51782E-3,-.176E-5,0
ONEWEB-0324,2021-083H,2026-07-02T20:11:58.361280,13.18686076,.0002038,87.9188,332.3362,96.7861,263.3503,0,U,49193,999,23206,-.32066E-4,0,0
ONEWEB-0325,2021-083J,2026-07-02T20:16:49.448928,13.18686313,.000177,87.9180,332.3424,95.4869,264.6464,0,U,49194,999,23207,-.87721E-4,-.22E-6,0
ONEWEB-0326,2021-083K,2026-07-02T17:00:21.909024,13.18686029,.0001774,87.9186,332.3683,85.5922,274.5413,0,U,49195,999,23204,.55249E-4,.35E-6,0
ONEWEB-0327,2021-083L,2026-07-02T16:59:57.697152,13.18685776,.0001619,87.9178,332.3714,82.7800,277.3516,0,U,49196,999,23206,-.6413E-4,-.12E-6,0
ONEWEB-0328,2021-083M,2026-07-02T20:06:28.309824,13.13468373,.0002023,87.8977,317.0941,98.4276,261.7082,0,U,49197,999,23295,.61421E-4,.35E-6,0
ONEWEB-0331,2021-083N,2026-07-02T16:50:24.872928,13.18687642,.0001858,87.9185,332.3638,85.3924,274.7420,0,U,49198,999,23205,-.99074E-5,.9E-7,0
ONEWEB-0333,2021-083P,2026-07-02T19:59:09.530016,13.13468762,.0001837,87.8970,317.1202,98.7751,261.3586,0,U,49199,999,23296,.47732E-3,.187E-5,0
ONEWEB-0334,2021-083Q,2026-07-02T16:04:23.793312,13.20774223,.0001989,87.9193,271.3599,123.4055,236.7269,0,U,49200,999,23883,.43158E-4,.31E-6,0
ONEWEB-0335,2021-083R,2026-07-02T19:51:49.895712,13.13471251,.0001919,87.8971,317.1185,93.7484,266.3865,0,U,49201,999,23297,.87019E-3,.331E-5,0
ONEWEB-0336,2021-083S,2026-07-02T19:10:24.609216,13.13469948,.0001975,87.8968,317.1195,90.6697,269.4658,0,U,49202,999,23296,-.31278E-3,-.101E-5,0
ONEWEB-0337,2021-083T,2026-07-02T19:24:50.058144,13.13469291,.0002067,87.8965,317.1233,96.2542,263.8823,0,U,49203,999,23296,.34554E-3,.139E-5,0
ONEWEB-0338,2021-083U,2026-07-02T11:53:29.032224,13.20770416,.0001914,87.9187,271.3972,108.1650,251.9692,0,U,49204,999,23883,-.88082E-4,-.23E-6,0
