ONEWEB-0311             
1 49097U 21075Y   26183.73861931 -.00000204  00000+0 -55909-3 0  9990
2 49097  87.9135   2.7686 0002026  77.6237 282.5121 13.17649412235677
ONEWEB-0312             
1 49098U 21075Z   26183.75381240  .00000045  00000+0  83249-4 0  9993
2 49098  87.9134   2.7759 0002185  87.3613 272.7769 13.17648867235650
ONEWEB-0313             
1 49099U 21075AA  26183.75874308  .00000001  00000+0 -29479-4 0  9994
2 49099  87.9131   2.7805 0001926  86.7270 273.4081 13.17649364235641
ONEWEB-0314             
1 49100U 21075AB  26183.72513546  .00000037  00000+0  62917-4 0  9990
2 49100  87.9145   2.7614 0002211  85.8475 274.2909 13.17650446235610
ONEWEB-0315             
1 49101U 21075AC  26183.83712685  .00000333  00000+0  89129-3 0  9990
2 49101  87.8956 347.5323 0001821  81.6606 278.4729 13.12441159237222
ONEWEB-0316             
1 49102U 21075AD  26183.71349648  .00000228  00000+0  54460-3 0  9996
2 49102  87.9179 332.3673 0001841  97.1913 262.9428 13.18684796239257
ONEWEB-0317             
1 49103U 21075AE  26183.84051391  .00000343  00000+0  91725-3 0  9999
2 49103  87.8957 347.5556 0002138 113.3531 246.7823 13.12441767237245
ONEWEB-0318             
1 49104U 21075AF  26183.40661904  .00000027  00000+0  36114-4 0  9990
2 49104  87.9181 332.4303 0001886  90.0602 270.0746 13.18686301239177
ONEWEB-0319             
1 49105U 21075AG  26183.74031285 -.00000020  00000+0 -84525-4 0  9995
2 49105  87.9136   2.7732 0001809  73.6177 286.5154 13.17650221235655
ONEWEB-0323             
1 49106U 21075AH  26183.82188225  .00000326  00000+0  86943-3 0  9994
2 49106  87.8959 347.5404 0001977  77.3911 282.7439 13.12442700236603
ONEWEB-0329             
1 49107U 21075AJ  26183.74875387 -.00000012  00000+0 -63306-4 0  9991
2 49107  87.9138   2.7721 0001974  87.8787 272.2570 13.17650107235639
ONEWEB-0330             
1 49108U 21075AK  26183.75673277  .00000113  00000+0  25312-3 0  9991
2 49108  87.9135   2.7842 0002139  91.2513 268.8865 13.19184572235673
ONEWEB-0292             
1 49186U 21083A   26183.62960156 -.00000315  00000+0 -89884-3 0  9997
2 49186  87.8968 317.1634 0001863  94.5244 265.6098 13.13469273232953
ONEWEB-0303             
1 49187U 21083B   26183.70674308 -.00000098  00000+0 -28065-3 0  9990
2 49187  87.9181 332.3690 0001817  90.6930 269.4410 13.18687615232026
ONEWEB-0306             
1 49188U 21083C   26183.84837120 -.00000037  00000+0 -12610-3 0  9991
2 49188  87.9187 332.3293 0001926 102.2624 257.8724 13.18687705232088
ONEWEB-0307             
1 49189U 21083D   26183.85220963 -.00000222  00000+0 -64160-3 0  9997
2 49189  87.8970 317.1171 0001911  95.0250 265.1098 13.13470894232981
ONEWEB-0320             
1 49190U 21083E   26183.64098608  .00000041  00000+0  70749-4 0  9993
2 49190  87.9174 332.3870 0001863  96.9150 263.2194 13.18687140232019
ONEWEB-0321             
1 49191U 21083F   26183.65542031  .00000062  00000+0  12023-3 0  9992
2 49191  87.9193 271.3525 0002103 107.7395 252.3968 13.20773322238879
ONEWEB-0322             
1 49192U 21083G   26183.84798734 -.00000176  00000+0 -51782-3 0  9990
2 49192  87.8967 317.1176 0001736 112.6101 247.5212 13.13469292232973
ONEWEB-0324             
1 49193U 21083H   26183.84164770  .00000000  00000+0 -32066-4 0  9998
2 49193  87.9188 332.3362 0002038  96.7861 263.3503 13.18686076232062
ONEWEB-0325             
1 49194U 21083J   26183.84501677 -.00000022  00000+0 -87721-4 0  9993
2 49194  87.9180 332.3424 0001770  95.4869 264.6464 13.18686313232075
ONEWEB-0326             
1 49195U 21083K   26183.70858691  .00000035  00000+0  55249-4 0  9992
2 49195  87.9186 332.3683 0001774  85.5922 274.5413 13.18686029232048
ONEWEB-0327             
1 49196U 21083L   26183.70830668 -.00000012  00000+0 -64130-4 0  9993
2 49196  87.9178 332.3714 0001619  82.7800 277.3516 13.18685776232062
ONEWEB-0328             
1 49197U 21083M   26183.83782766  .00000035  00000+0  61421-4 0  9996
2 49197  87.8977 317.0941 0002023  98.4276 261.7082 13.13468373232952
ONEWEB-0331             
1 49198U 21083N   26183.70167677  .00000009  00000+0 -99074-5 0  9999
2 49198  87.9185 332.3638 0001858  85.3924 274.7420 13.18687642232056
ONEWEB-0333             
1 49199U 21083P   26183.83274919  .00000187  00000+0  47732-3 0  9990
2 49199  87.8970 317.1202 0001837  98.7751 261.3586 13.13468762232969
ONEWEB-0334             
1 49200U 21083Q   26183.66971983  .00000031  00000+0  43158-4 0  9996
2 49200  87.9193 271.3599 0001989 123.4055 236.7269 13.20774223238837
ONEWEB-0335             
1 49201U 21083R   26183.82766083  .00000331  00000+0  87019-3 0  9994
2 49201  87.8971 317.1185 0001919  93.7484 266.3865 13.13471251232976
ONEWEB-0336             
1 49202U 21083S   26183.79889594 -.00000101  00000+0 -31278-3 0  9997
2 49202  87.8968 317.1195 0001975  90.6697 269.4658 13.13469948232961
ONEWEB-0337             
1 49203U 21083T   26183.80891271  .00000139  00000+0  34554-3 0  9994
2 49203  87.8965 317.1233 0002067  96.2542 263.8823 13.13469291232969
ONEWEB-0338             
1 49204U 21083U   26183.49547491 -.00000023  00000+0 -88082-4 0  9992
2 49204  87.9187 271.3972 0001914 108.1650 251.9692 13.20770416238837
